IRIDIUM 921 [-]         
1 24873U 97034E   23280.87667510  .00026264  00000+0  10195-2 0  9999
2 24873  86.3867  51.9930 0006623 125.0088 235.1781 15.25949654436686
IRIDIUM 26 [-]          
1 24903U 97043A   23281.00104830  .00000907  00000+0  30538-3 0  9990
2 24903  86.4022   9.9747 0002131  87.4880 272.6560 14.36027893368468
IRIDIUM 22 [-]          
1 24907U 97043E   23280.79272094  .00000873  00000+0  30024-3 0  9999
2 24907  86.4026  13.0957 0002236  92.9617 267.1835 14.34934825368060
DUMMY MASS 1 [-]        
1 24925U 97048A   23280.87074603  .00001158  00000+0  12986-3 0  9993
2 24925  86.3331  60.9731 0007360 158.3507 201.8030 14.85857463413282
DUMMY MASS 2 [-]        
1 24926U 97048B   23280.93380530  .00001139  00000+0  12845-3 0  9993
2 24926  86.3328  62.4435 0007717 169.9286 190.2094 14.85618573413328
IRIDIUM 29 [-]          
1 24944U 97051A   23281.08500993  .00000798  00000+0  27156-3 0  9992
2 24944  86.3981  42.9481 0002367  94.4067 265.7400 14.35394734364792
IRIDIUM 33 [-]          
1 24946U 97051C   23280.88248959  .00000754  00000+0  26269-3 0  9998
2 24946  86.3897  42.3097 0006015 304.1827  55.8798 14.34132929364104
IRIDIUM 28 [-]          
1 24948U 97051E   23280.83743748  .00001080  00000+0  36276-3 0  9993
2 24948  86.3988  40.9232 0001830  83.7958 276.3447 14.36324325365058
